FENGYUN 3D              
1 43010U 17072A   26172.23489620  .00000086  00000+0  62511-4 0  9999
2 43010  99.0133 146.7307 0002488  56.3221 303.8191 14.19740232445566
NOAA 20 (JPSS-1)        
1 43013U 17073A   26171.38467992  .00000046  00000+0  42637-4 0  9999
2 43013  98.7771 110.8189 0000383 117.6624 242.4591 14.19512290444925
GOES 17                 
1 43226U 18022A   26171.38933449 -.00000187  00000+0  00000+0 0  9995
2 43226   0.9463  85.6559 0000598  28.1563 205.4138  1.00269480 30451
SENTINEL-3B             
1 43437U 18039A   26171.41568603  .00000074  00000+0  48499-4 0  9990
2 43437  98.6248 238.9017 0000727  94.6800 265.4463 14.26735540424583
FENGYUN 2H              
1 43491U 18050A   26171.90678750 -.00000133  00000+0  00000+0 0  9990
2 43491   3.0420  79.0350 0001870 136.4148  99.4793  1.00269312 29476
METOP-C                 
1 43689U 18087A   26171.44664144  .00000064  00000+0  49212-4 0  9995
2 43689  98.6643 230.9907 0001880 125.1991 234.9363 14.21512882395295
GEO-KOMPSAT-2A          
1 43823U 18100A   26171.41741235 -.00000348  00000+0  00000+0 0  9998
2 43823   0.0473 151.2642 0002170 295.2838 100.6088  1.00272261 27669
METEOR-M2 2             
1 44387U 19038A   26172.24870213  .00000092  00000+0  59797-4 0  9993
2 44387  98.9151 159.5946 0001910  42.3296 317.8029 14.24366704361879
ARKTIKA-M 1             
1 47719U 21016A   26168.49069990 -.00000210  00000+0  00000+0 0  9999
2 47719  63.2922  57.5948 7288528 269.9420  14.6012  2.00622504 38796
FENGYUN 3E              
1 49008U 21062A   26172.14784486 -.00000013  00000+0  14671-4 0  9999
2 49008  98.7495 175.5122 0002836  80.1951 279.9546 14.19904031257144
GOES 18                 
1 51850U 22021A   26170.93705689  .00000091  00000+0  00000+0 0  9997
2 51850   0.0372 171.7340 0000425 325.4670 331.2805  1.00271950  6625
NOAA 21 (JPSS-2)        
1 54234U 22150A   26171.41746469  .00000044  00000+0  41590-4 0  9996
2 54234  98.7059 110.1525 0001836 147.2077 212.9214 14.19565986187000
METEOSAT-12 (MTG-I1)    
1 54743U 22170C   26171.24937015 -.00000013  00000+0  00000+0 0  9996
2 54743   0.7421  23.5307 0003320  70.9892 263.3203  1.00273524 13009
TIANMU-1 03             
1 55973U 23039A   26172.18903074  .00012767  00000+0  25127-3 0  9998
2 55973  97.5243 346.3147 0004082  89.4194 270.7523 15.47383844181450
TIANMU-1 04             
1 55974U 23039B   26172.17696106  .00013212  00000+0  25461-3 0  9990
2 55974  97.5177 345.4564 0004739  84.8538 275.3252 15.47983894181462
TIANMU-1 05             
1 55975U 23039C   26172.16998787  .00012558  00000+0  24784-3 0  9999
2 55975  97.5222 345.9087 0004110 105.7066 254.4637 15.47307459181430
TIANMU-1 06             
1 55976U 23039D   26172.18058797  .00013045  00000+0  25229-3 0  9997
2 55976  97.5229 346.5593 0004336 100.4453 259.7286 15.47886994181466
FENGYUN 3G              
1 56232U 23055A   26172.03212297  .00020686  00000+0  33395-3 0  9994
2 56232  49.9936 326.2083 0007120 312.3457  47.6906 15.52780769180606
METEOR-M2 3             
1 57166U 23091A   26172.17368441 -.00000011  00000+0  13952-4 0  9998
2 57166  98.6080 227.0705 0004569 145.3589 214.7888 14.24047125155087
TIANMU-1 07             
1 57399U 23101A   26172.15550735  .00004971  00000+0  17455-3 0  9994
2 57399  97.2589 222.7329 0004264 113.4890 246.6799 15.29845863162254
TIANMU-1 08             
1 57400U 23101B   26172.18754628  .00005123  00000+0  17972-3 0  9991
2 57400  97.2577 222.5342 0005683 105.6841 254.5027 15.29851215162252
TIANMU-1 09             
1 57401U 23101C   26172.17087914  .00005145  00000+0  18034-3 0  9992
2 57401  97.2536 221.9317 0004768 117.8607 242.3117 15.29883034162250
TIANMU-1 10             
1 57402U 23101D   26172.20400343  .00005174  00000+0  18147-3 0  9999
2 57402  97.2615 223.0185 0006349 115.8010 244.3887 15.29855010162257
FENGYUN 3F              
1 57490U 23111A   26172.20213481  .00000005  00000+0  22910-4 0  9994
2 57490  98.6835 242.1360 0001584  90.5522 269.5836 14.19939645149436
ARKTIKA-M 2             
1 58584U 23198A   26168.75920439  .00000145  00000+0  00000+0 0  9993
2 58584  63.2243 154.2920 6902344 267.4286  18.7609  2.00612717 18330
TIANMU-1 11             
1 58645U 23205A   26172.11633319  .00004294  00000+0  16454-3 0  9996
2 58645  97.3447 193.6115 0008481   3.5142 356.6155 15.27029085138121
TIANMU-1 12             
1 58646U 23205B   26172.15231972  .00004512  00000+0  17300-3 0  9994
2 58646  97.3437 193.4019 0006244 349.0675  11.0427 15.26995374138111
TIANMU-1 13             
1 58647U 23205C   26172.11934507  .00004379  00000+0  16873-3 0  9990
2 58647  97.3463 193.6425 0005468 324.9948  35.0931 15.26847825138108
TIANMU-1 14             
1 58648U 23205D   26172.16997116  .00004304  00000+0  16564-3 0  9996
2 58648  97.3400 192.8710 0006420 329.5178  30.5687 15.26892966138118
TIANMU-1 19             
1 58660U 23208A   26172.14163537  .00006543  00000+0  21684-3 0  9999
2 58660  97.4506 288.4618 0003563 309.6113  50.4813 15.31623599137933
TIANMU-1 20             
1 58661U 23208B   26172.17636012  .00006446  00000+0  20586-3 0  9998
2 58661  97.4447 289.1361 0005756 316.9678  43.1113 15.32814451138038
