OBJECT_NAME,OBJECT_ID,EPOCH,MEAN_MOTION,ECCENTRICITY,INCLINATION,RA_OF_ASC_NODE,ARG_OF_PERICENTER,MEAN_ANOMALY,EPHEMERIS_TYPE,CLASSIFICATION_TYPE,NORAD_CAT_ID,ELEMENT_SET_NO,REV_AT_EPOCH,BSTAR,MEAN_MOTION_DOT,MEAN_MOTION_DDOT
FENGYUN 3D,2017-072A,2026-06-21T05:38:15.031680,14.19740232,.0002488,99.0133,146.7307,56.3221,303.8191,0,U,43010,999,44556,.62511E-4,.86E-6,0
NOAA 20 (JPSS-1),2017-073A,2026-06-20T09:13:56.345088,14.19512290,.0000383,98.7771,110.8189,117.6624,242.4591,0,U,43013,999,44492,.42637E-4,.46E-6,0
GOES 17,2018-022A,2026-06-20T09:20:38.499936,1.00269480,.0000598,0.9463,85.6559,28.1563,205.4138,0,U,43226,999,3045,0,-.187E-5,0
SENTINEL-3B,2018-039A,2026-06-20T09:58:35.272992,14.26735540,.0000727,98.6248,238.9017,94.6800,265.4463,0,U,43437,999,42458,.48499E-4,.74E-6,0
FENGYUN 2H,2018-050A,2026-06-20T21:45:46.440000,1.00269312,.000187,3.0420,79.0350,136.4148,99.4793,0,U,43491,999,2947,0,-.133E-5,0
METOP-C,2018-087A,2026-06-20T10:43:09.820416,14.21512882,.000188,98.6643,230.9907,125.1991,234.9363,0,U,43689,999,39529,.49212E-4,.64E-6,0
GEO-KOMPSAT-2A,2018-100A,2026-06-20T10:01:04.427040,1.00272261,.000217,0.0473,151.2642,295.2838,100.6088,0,U,43823,999,2766,0,-.348E-5,0
METEOR-M2 2,2019-038A,2026-06-21T05:58:07.864032,14.24366704,.000191,98.9151,159.5946,42.3296,317.8029,0,U,44387,999,36187,.59797E-4,.92E-6,0
ARKTIKA-M 1,2021-016A,2026-06-17T11:46:36.471360,2.00622504,.72885287,63.2922,57.5948,269.9420,14.6012,0,U,47719,999,3879,0,-.21E-5,0
FENGYUN 3E,2021-062A,2026-06-21T03:32:53.795904,14.19904031,.0002836,98.7495,175.5122,80.1951,279.9546,0,U,49008,999,25714,.14671E-4,-.13E-6,0
GOES 18,2022-021A,2026-06-19T22:29:21.715296,1.00271950,.00004251,0.0372,171.7340,325.4670,331.2805,0,U,51850,999,662,0,.91E-6,0
NOAA 21 (JPSS-2),2022-150A,2026-06-20T10:01:08.949216,14.19565986,.0001836,98.7059,110.1525,147.2077,212.9214,0,U,54234,999,18700,.4159E-4,.44E-6,0
METEOSAT-12 (MTG-I1),2022-170C,2026-06-20T05:59:05.580960,1.00273524,.000332,0.7421,23.5307,70.9892,263.3203,0,U,54743,999,1300,0,-.13E-6,0
TIANMU-1 03,2023-039A,2026-06-21T04:32:12.255936,15.47383844,.0004082,97.5243,346.3147,89.4194,270.7523,0,U,55973,999,18145,.25127E-3,.12767E-3,0
TIANMU-1 04,2023-039B,2026-06-21T04:14:49.435584,15.47983894,.0004739,97.5177,345.4564,84.8538,275.3252,0,U,55974,999,18146,.25461E-3,.13212E-3,0
TIANMU-1 05,2023-039C,2026-06-21T04:04:46.951968,15.47307459,.000411,97.5222,345.9087,105.7066,254.4637,0,U,55975,999,18143,.24784E-3,.12558E-3,0
TIANMU-1 06,2023-039D,2026-06-21T04:20:02.800608,15.47886994,.0004336,97.5229,346.5593,100.4453,259.7286,0,U,55976,999,18146,.25229E-3,.13045E-3,0
FENGYUN 3G,2023-055A,2026-06-21T00:46:15.424608,15.52780769,.000712,49.9936,326.2083,312.3457,47.6906,0,U,56232,999,18060,.33395E-3,.20686E-3,0
METEOR-M2 3,2023-091A,2026-06-21T04:10:06.333024,14.24047125,.0004569,98.6080,227.0705,145.3589,214.7888,0,U,57166,999,15508,.13952E-4,-.11E-6,0
TIANMU-1 07,2023-101A,2026-06-21T03:43:55.835040,15.29845863,.0004264,97.2589,222.7329,113.4890,246.6799,0,U,57399,999,16225,.17455E-3,.4971E-4,0
TIANMU-1 08,2023-101B,2026-06-21T04:30:03.998592,15.29851215,.0005683,97.2577,222.5342,105.6841,254.5027,0,U,57400,999,16225,.17972E-3,.5123E-4,0
TIANMU-1 09,2023-101C,2026-06-21T04:06:03.957696,15.29883034,.0004768,97.2536,221.9317,117.8607,242.3117,0,U,57401,999,16225,.18034E-3,.5145E-4,0
TIANMU-1 10,2023-101D,2026-06-21T04:53:45.896352,15.29855010,.0006349,97.2615,223.0185,115.8010,244.3887,0,U,57402,999,16225,.18147E-3,.5174E-4,0
FENGYUN 3F,2023-111A,2026-06-21T04:51:04.447584,14.19939645,.0001584,98.6835,242.1360,90.5522,269.5836,0,U,57490,999,14943,.2291E-4,.5E-7,0
ARKTIKA-M 2,2023-198A,2026-06-17T18:13:15.259296,2.00612717,.69023443,63.2243,154.2920,267.4286,18.7609,0,U,58584,999,1833,0,.145E-5,0
TIANMU-1 11,2023-205A,2026-06-21T02:47:31.187616,15.27029085,.0008481,97.3447,193.6115,3.5142,356.6155,0,U,58645,999,13812,.16454E-3,.4294E-4,0
TIANMU-1 12,2023-205B,2026-06-21T03:39:20.423808,15.26995374,.0006244,97.3437,193.4019,349.0675,11.0427,0,U,58646,999,13811,.173E-3,.4512E-4,0
TIANMU-1 13,2023-205C,2026-06-21T02:51:51.414048,15.26847825,.0005468,97.3463,193.6425,324.9948,35.0931,0,U,58647,999,13810,.16873E-3,.4379E-4,0
TIANMU-1 14,2023-205D,2026-06-21T04:04:45.508224,15.26892966,.000642,97.3400,192.8710,329.5178,30.5687,0,U,58648,999,13811,.16564E-3,.4304E-4,0
TIANMU-1 19,2023-208A,2026-06-21T03:23:57.295968,15.31623599,.0003563,97.4506,288.4618,309.6113,50.4813,0,U,58660,999,13793,.21684E-3,.6543E-4,0
TIANMU-1 20,2023-208B,2026-06-21T04:13:57.514368,15.32814451,.0005756,97.4447,289.1361,316.9678,43.1113,0,U,58661,999,13803,.20586E-3,.6446E-4,0
